[{"OBJECT_NAME":"SL-16 R/B","OBJECT_ID":"1993-059B","EPOCH":"2026-04-23T15:34:14.259360","MEAN_MOTION":14.17238093,"ECCENTRICITY":0.00159484,"INCLINATION":70.9891,"RA_OF_ASC_NODE":276.3148,"ARG_OF_PERICENTER":148.1613,"MEAN_ANOMALY":212.0478,"EPHEMERIS_TYPE":0,"CLASSIFICATION_TYPE":"U","NORAD_CAT_ID":22803,"ELEMENT_SET_NO":999,"REV_AT_EPOCH":68590,"BSTAR":-2.22635e-7,"MEAN_MOTION_DOT":-4.8e-7,"MEAN_MOTION_DDOT":0},{"OBJECT_NAME":"ARIANE 40 R/B","OBJECT_ID":"1993-061H","EPOCH":"2026-04-24T03:47:21.970752","MEAN_MOTION":14.32883595,"ECCENTRICITY":0.00115359,"INCLINATION":98.4846,"RA_OF_ASC_NODE":182.1305,"ARG_OF_PERICENTER":144.9089,"MEAN_ANOMALY":215.2858,"EPHEMERIS_TYPE":0,"CLASSIFICATION_TYPE":"U","NORAD_CAT_ID":22830,"ELEMENT_SET_NO":999,"REV_AT_EPOCH":70061,"BSTAR":6.8687144e-5,"MEAN_MOTION_DOT":1.45e-6,"MEAN_MOTION_DDOT":0},{"OBJECT_NAME":"COSMOS 2278","OBJECT_ID":"1994-023A","EPOCH":"2026-04-24T05:08:48.009984","MEAN_MOTION":14.14386435,"ECCENTRICITY":0.00104022,"INCLINATION":71.0531,"RA_OF_ASC_NODE":79.8484,"ARG_OF_PERICENTER":309.8994,"MEAN_ANOMALY":50.1213,"EPHEMERIS_TYPE":0,"CLASSIFICATION_TYPE":"U","NORAD_CAT_ID":23087,"ELEMENT_SET_NO":999,"REV_AT_EPOCH":65124,"BSTAR":0.00015108849,"MEAN_MOTION_DOT":2.42e-6,"MEAN_MOTION_DDOT":0},{"OBJECT_NAME":"SL-16 R/B","OBJECT_ID":"1994-023B","EPOCH":"2026-04-24T00:40:44.228352","MEAN_MOTION":14.15015471,"ECCENTRICITY":0.00052412,"INCLINATION":71.0002,"RA_OF_ASC_NODE":335.6738,"ARG_OF_PERICENTER":244.1957,"MEAN_ANOMALY":115.8625,"EPHEMERIS_TYPE":0,"CLASSIFICATION_TYPE":"U","NORAD_CAT_ID":23088,"ELEMENT_SET_NO":999,"REV_AT_EPOCH":65250,"BSTAR":-4.5413713e-5,"MEAN_MOTION_DOT":-1.36e-6,"MEAN_MOTION_DDOT":0},{"OBJECT_NAME":"SL-16 R/B","OBJECT_ID":"1994-074B","EPOCH":"2026-04-24T02:37:52.151232","MEAN_MOTION":14.79454388,"ECCENTRICITY":0.00080556,"INCLINATION":97.704,"RA_OF_ASC_NODE":143.0735,"ARG_OF_PERICENTER":77.1184,"MEAN_ANOMALY":348.8262,"EPHEMERIS_TYPE":0,"CLASSIFICATION_TYPE":"U","NORAD_CAT_ID":23343,"ELEMENT_SET_NO":999,"REV_AT_EPOCH":69396,"BSTAR":4.436244e-5,"MEAN_MOTION_DOT":2.82e-6,"MEAN_MOTION_DDOT":0},{"OBJECT_NAME":"SL-16 R/B","OBJECT_ID":"1994-077B","EPOCH":"2026-04-23T15:20:02.206752","MEAN_MOTION":14.15571583,"ECCENTRICITY":5.488e-5,"INCLINATION":70.9824,"RA_OF_ASC_NODE":257.9202,"ARG_OF_PERICENTER":132.8081,"MEAN_ANOMALY":227.3088,"EPHEMERIS_TYPE":0,"CLASSIFICATION_TYPE":"U","NORAD_CAT_ID":23405,"ELEMENT_SET_NO":999,"REV_AT_EPOCH":62259,"BSTAR":0.00011143502,"MEAN_MOTION_DOT":1.7e-6,"MEAN_MOTION_DDOT":0},{"OBJECT_NAME":"ARIANE 40+ R/B","OBJECT_ID":"1995-021B","EPOCH":"2026-04-24T04:42:56.596032","MEAN_MOTION":14.39802353,"ECCENTRICITY":0.00068323,"INCLINATION":98.4432,"RA_OF_ASC_NODE":185.046,"ARG_OF_PERICENTER":16.7743,"MEAN_ANOMALY":42.0483,"EPHEMERIS_TYPE":0,"CLASSIFICATION_TYPE":"U","NORAD_CAT_ID":23561,"ELEMENT_SET_NO":999,"REV_AT_EPOCH":62579,"BSTAR":7.5614653e-5,"MEAN_MOTION_DOT":1.94e-6,"MEAN_MOTION_DDOT":0},{"OBJECT_NAME":"SL-16 R/B","OBJECT_ID":"1995-058B","EPOCH":"2026-04-24T06:49:04.785024","MEAN_MOTION":14.15505195,"ECCENTRICITY":0.00108756,"INCLINATION":71.0204,"RA_OF_ASC_NODE":84.5284,"ARG_OF_PERICENTER":41.5574,"MEAN_ANOMALY":318.6374,"EPHEMERIS_TYPE":0,"CLASSIFICATION_TYPE":"U","NORAD_CAT_ID":23705,"ELEMENT_SET_NO":999,"REV_AT_EPOCH":57430,"BSTAR":-3.2819992e-5,"MEAN_MOTION_DOT":-1.12e-6,"MEAN_MOTION_DDOT":0},{"OBJECT_NAME":"SL-16 R/B","OBJECT_ID":"1996-051B","EPOCH":"2026-04-24T06:41:37.285728","MEAN_MOTION":14.12427342,"ECCENTRICITY":0.00124987,"INCLINATION":70.7598,"RA_OF_ASC_NODE":78.7421,"ARG_OF_PERICENTER":69.2692,"MEAN_ANOMALY":290.9766,"EPHEMERIS_TYPE":0,"CLASSIFICATION_TYPE":"U","NORAD_CAT_ID":24298,"ELEMENT_SET_NO":999,"REV_AT_EPOCH":52808,"BSTAR":7.3720312e-5,"MEAN_MOTION_DOT":8.7e-7,"MEAN_MOTION_DDOT":0},{"OBJECT_NAME":"ORBVIEW 2 (SEASTAR)","OBJECT_ID":"1997-037A","EPOCH":"2026-04-24T00:03:38.115072","MEAN_MOTION":14.35523971,"ECCENTRICITY":0.00011301,"INCLINATION":98.864,"RA_OF_ASC_NODE":279.5329,"ARG_OF_PERICENTER":298.638,"MEAN_ANOMALY":61.4691,"EPHEMERIS_TYPE":0,"CLASSIFICATION_TYPE":"U","NORAD_CAT_ID":24883,"ELEMENT_SET_NO":999,"REV_AT_EPOCH":51497,"BSTAR":8.1599507e-5,"MEAN_MOTION_DOT":1.88e-6,"MEAN_MOTION_DDOT":0},{"OBJECT_NAME":"SL-16 R/B","OBJECT_ID":"1998-043G","EPOCH":"2026-04-23T15:15:49.084128","MEAN_MOTION":14.26059338,"ECCENTRICITY":0.00088515,"INCLINATION":98.8323,"RA_OF_ASC_NODE":67.3393,"ARG_OF_PERICENTER":241.5249,"MEAN_ANOMALY":118.504,"EPHEMERIS_TYPE":0,"CLASSIFICATION_TYPE":"U","NORAD_CAT_ID":25400,"ELEMENT_SET_NO":999,"REV_AT_EPOCH":44539,"BSTAR":3.6337228e-5,"MEAN_MOTION_DOT":4.1e-7,"MEAN_MOTION_DDOT":0},{"OBJECT_NAME":"SL-16 R/B","OBJECT_ID":"1998-045B","EPOCH":"2026-04-24T04:50:51.187776","MEAN_MOTION":14.16197255,"ECCENTRICITY":0.00092619,"INCLINATION":71.0097,"RA_OF_ASC_NODE":85.8607,"ARG_OF_PERICENTER":305.233,"MEAN_ANOMALY":54.7926,"EPHEMERIS_TYPE":0,"CLASSIFICATION_TYPE":"U","NORAD_CAT_ID":25407,"ELEMENT_SET_NO":999,"REV_AT_EPOCH":43354,"BSTAR":-0.00010211029,"MEAN_MOTION_DOT":-2.5e-6,"MEAN_MOTION_DDOT":0},{"OBJECT_NAME":"ISS (ZARYA)","OBJECT_ID":"1998-067A","EPOCH":"2026-04-23T14:51:45.400608","MEAN_MOTION":15.48913482,"ECCENTRICITY":0.0006828,"INCLINATION":51.6319,"RA_OF_ASC_NODE":210.1816,"ARG_OF_PERICENTER":342.1779,"MEAN_ANOMALY":17.8969,"EPHEMERIS_TYPE":0,"CLASSIFICATION_TYPE":"U","NORAD_CAT_ID":25544,"ELEMENT_SET_NO":999,"REV_AT_EPOCH":56329,"BSTAR":0.00017870385,"MEAN_MOTION_DOT":9.382e-5,"MEAN_MOTION_DDOT":0},{"OBJECT_NAME":"CZ-4B R/B","OBJECT_ID":"1999-025C","EPOCH":"2026-04-24T02:12:18.607392","MEAN_MOTION":14.18273702,"ECCENTRICITY":0.00365295,"INCLINATION":98.6538,"RA_OF_ASC_NODE":157.2783,"ARG_OF_PERICENTER":212.7916,"MEAN_ANOMALY":174.6668,"EPHEMERIS_TYPE":0,"CLASSIFICATION_TYPE":"U","NORAD_CAT_ID":25732,"ELEMENT_SET_NO":999,"REV_AT_EPOCH":39460,"BSTAR":3.3032568e-5,"MEAN_MOTION_DOT":2.5e-7,"MEAN_MOTION_DDOT":0},{"OBJECT_NAME":"OKEAN-O","OBJECT_ID":"1999-039A","EPOCH":"2026-04-24T03:23:21.573024","MEAN_MOTION":14.80399884,"ECCENTRICITY":0.00014686,"INCLINATION":97.9359,"RA_OF_ASC_NODE":173.5498,"ARG_OF_PERICENTER":115.4462,"MEAN_ANOMALY":244.6902,"EPHEMERIS_TYPE":0,"CLASSIFICATION_TYPE":"U","NORAD_CAT_ID":25860,"ELEMENT_SET_NO":999,"REV_AT_EPOCH":44111,"BSTAR":5.8684023e-5,"MEAN_MOTION_DOT":3.96e-6,"MEAN_MOTION_DDOT":0},{"OBJECT_NAME":"SL-16 R/B","OBJECT_ID":"1999-039B","EPOCH":"2026-04-24T03:30:14.092416","MEAN_MOTION":14.81787913,"ECCENTRICITY":0.00161357,"INCLINATION":97.9879,"RA_OF_ASC_NODE":173.1531,"ARG_OF_PERICENTER":108.6286,"MEAN_ANOMALY":251.668,"EPHEMERIS_TYPE":0,"CLASSIFICATION_TYPE":"U","NORAD_CAT_ID":25861,"ELEMENT_SET_NO":999,"REV_AT_EPOCH":44359,"BSTAR":5.261382e-5,"MEAN_MOTION_DOT":3.62e-6,"MEAN_MOTION_DDOT":0},{"OBJECT_NAME":"DELTA 2 R/B","OBJECT_ID":"1999-041E","EPOCH":"2026-04-24T04:05:55.037760","MEAN_MOTION":14.11925941,"ECCENTRICITY":0.05024985,"INCLINATION":51.7593,"RA_OF_ASC_NODE":119.5842,"ARG_OF_PERICENTER":122.5454,"MEAN_ANOMALY":242.5049,"EPHEMERIS_TYPE":0,"CLASSIFICATION_TYPE":"U","NORAD_CAT_ID":25876,"ELEMENT_SET_NO":999,"REV_AT_EPOCH":36945,"BSTAR":0.00011332875,"MEAN_MOTION_DOT":4.57e-6,"MEAN_MOTION_DDOT":0}]
